SL-14 R/B               
1 20511U 90018B   26197.71478469  .00000202  00000+0  22272-4 0  9990
2 20511  82.5216 102.5100 0016919  32.1139 328.1102 14.82234632941690
HST                     
1 20580U 90037B   26197.41290602  .00003155  00000+0  94703-4 0  9993
2 20580  28.4721 240.7781 0002206 116.1577 243.9246 15.31067854793052
SL-16 R/B               
1 20625U 90046B   26197.63849779  .00000274  00000+0  16571-3 0  9997
2 20625  70.9988  27.0923 0012371 111.7666 248.4775 14.15025590866631
COSMOS 2084             
1 20663U 90055A   26197.60561664  .00000748  00000+0  64586-4 0  9996
2 20663  62.7881 255.6726 0008265 319.5810  40.4676 15.06226547955736
SL-6 R/B(2)             
1 20666U 90055D   26197.36932182  .00000947  00000+0  81390-4 0  9992
2 20666  62.7805 176.0647 0045331   9.1524 351.0391 15.04090480957541
SL-8 R/B                
1 20775U 90078B   26197.81675950  .00008557  00000+0  24254-3 0  9995
2 20775  82.9039 134.8429 0343238 298.0242  58.6650 14.93605153828549
SL-8 R/B                
1 21088U 91006B   26197.62570681  .00000087  00000+0  71768-4 0  9992
2 21088  82.9406  74.1315 0023357  36.7157  22.3344 13.77509430781823
OKEAN-3                 
1 21397U 91039A   26197.58479939  .00001785  00000+0  12228-3 0  9991
2 21397  82.5144 211.8704 0012516 249.4103 110.5781 15.05439255884427
COSMOS 2151             
1 21422U 91042A   26197.80215766  .00000864  00000+0  66343-4 0  9990
2 21422  82.4982 319.1001 0011805 349.9931  10.1056 15.00515643882555
SL-14 R/B               
1 21423U 91042B   26197.72761670  .00000178  00000+0  19507-4 0  9990
2 21423  82.4931  99.1945 0017116 171.8964 188.2530 14.81918538872181
ERS-1                   
1 21574U 91050A   26197.70540814  .00000169  00000+0  68745-4 0  9997
2 21574  98.7796 219.1243 0031975 177.2884 182.8482 14.39533926834295
ARIANE 40 R/B           
1 21610U 91050F   26197.65816501  .00000111  00000+0  45709-4 0  9993
2 21610  98.1862 244.9248 0004099  58.2617 301.8973 14.42972350837590
INTERCOSMOS 25          
1 21819U 91086A   26197.57896199  .00000065  00000+0  97515-5 0  9996
2 21819  82.6005 232.0236 1484651 198.9388 155.0319 12.12240792512302
SL-8 R/B                
1 21876U 92008B   26197.44115971  .00000094  00000+0  80723-4 0  9996
2 21876  82.9273 172.0371 0035740 133.2229 340.3219 13.75984009727126
SL-8 R/B                
1 21938U 92020B   26197.65761750  .00000007  00000+0 -77967-5 0  9996
2 21938  82.9280  57.9637 0027896 299.2394 115.4393 13.75550150718869
USA 81                  
1 21949U 92023A   26197.61439709  .00000096  00000+0  28178-4 0  9999
2 21949  85.0049  57.0190 0001925  65.6089 294.5304 14.32405168113248
COSMOS 2219             
1 22219U 92076A   26197.75875745 -.00000234  00000+0 -98175-4 0  9997
2 22219  71.0611 108.2554 0018379 355.1498   4.9443 14.14108164736620
SL-16 R/B               
1 22220U 92076B   26197.69240218  .00000063  00000+0  55472-4 0  9994
2 22220  71.0004 276.6276 0015036 260.3093 216.6075 14.16877873740107
COSMOS 2221             
1 22236U 92080A   26197.42424896  .00000816  00000+0  69120-4 0  9994
2 22236  82.5046 155.7529 0015790 116.4918 243.7925 14.96605760800046
SL-16 R/B               
1 22285U 92093B   26197.42889764 -.00000253  00000+0 -10496-3 0  9999
2 22285  71.0216  94.0056 0002222 131.2263 228.9052 14.15465332731371
COSMOS 2228             
1 22286U 92094A   26197.81974730  .00000811  00000+0  66873-4 0  9991
2 22286  82.5187 113.6594 0016426 223.3017 136.6916 14.97678368795382
SL-16 R/B               
1 22566U 93016B   26197.69478052  .00000263  00000+0  15932-3 0  9999
2 22566  71.0086 304.2311 0008777 135.2886 224.8946 14.15313430720426
COSMOS 2242             
1 22626U 93024A   26197.32491278  .00000862  00000+0  72501-4 0  9991
2 22626  82.5199 143.6660 0014732 228.4540 131.5420 14.96986583799631
SL-16 R/B               
1 22803U 93059B   26197.14549403 -.00000074  00000+0 -12594-4 0  9993
2 22803  70.9901 100.2368 0016699   7.1032 353.0325 14.17249367697734
ARIANE 40 R/B           
1 22830U 93061H   26197.67277581  .00000069  00000+0  40931-4 0  9997
2 22830  98.4805 263.9153 0009509 260.8413  99.1696 14.32918882712575
COSMOS 2278             
1 23087U 94023A   26197.59687174  .00000059  00000+0  55561-4 0  9999
2 23087  71.0521 265.3935 0009559 203.4810 156.5877 14.14393454663032
SL-16 R/B               
1 23088U 94023B   26197.58549660  .00000180  00000+0  11767-3 0  9990
2 23088  70.9985 160.1918 0001378 122.6480 237.4775 14.15025044664321
SL-16 R/B               
1 23343U 94074B   26197.64448866  .00000185  00000+0  31343-4 0  9991
2 23343  97.6986 223.1368 0007278 149.9782 324.3962 14.79525068706314
SL-16 R/B               
1 23405U 94077B   26197.65814567  .00000005  00000+0  26842-4 0  9998
2 23405  70.9821  81.1617 0004091 302.2859  57.7867 14.15574280634482
ARIANE 40+ R/B          
1 23561U 95021B   26197.66903940  .00000117  00000+0  51027-4 0  9993
2 23561  98.4400 267.3162 0007940 112.7455   5.2242 14.39848075637804
SL-16 R/B               
1 23705U 95058B   26197.60067120  .00000238  00000+0  14622-3 0  9991
2 23705  71.0209 269.6046 0014624 281.0002  78.9476 14.15509477586093
