OBJECT_NAME,OBJECT_ID,EPOCH,MEAN_MOTION,ECCENTRICITY,INCLINATION,RA_OF_ASC_NODE,ARG_OF_PERICENTER,MEAN_ANOMALY,EPHEMERIS_TYPE,CLASSIFICATION_TYPE,NORAD_CAT_ID,ELEMENT_SET_NO,REV_AT_EPOCH,BSTAR,MEAN_MOTION_DOT,MEAN_MOTION_DDOT
SL-14 R/B,1990-018B,2026-07-16T17:09:17.397216,14.82234632,.0016919,82.5216,102.5100,32.1139,328.1102,0,U,20511,999,94169,.22272E-4,.202E-5,0
HST,1990-037B,2026-07-16T09:54:35.080128,15.31067854,.0002206,28.4721,240.7781,116.1577,243.9246,0,U,20580,999,79305,.94703E-4,.3155E-4,0
SL-16 R/B,1990-046B,2026-07-16T15:19:26.209056,14.15025590,.0012371,70.9988,27.0923,111.7666,248.4775,0,U,20625,999,86663,.16571E-3,.274E-5,0
COSMOS 2084,1990-055A,2026-07-16T14:32:05.277696,15.06226547,.0008265,62.7881,255.6726,319.5810,40.4676,0,U,20663,999,95573,.64586E-4,.748E-5,0
SL-6 R/B(2),1990-055D,2026-07-16T08:51:49.405248,15.04090480,.0045331,62.7805,176.0647,9.1524,351.0391,0,U,20666,999,95754,.8139E-4,.947E-5,0
SL-8 R/B,1990-078B,2026-07-16T19:36:08.020800,14.93605153,.0343238,82.9039,134.8429,298.0242,58.6650,0,U,20775,999,82854,.24254E-3,.8557E-4,0
SL-8 R/B,1991-006B,2026-07-16T15:01:01.068384,13.77509430,.0023357,82.9406,74.1315,36.7157,22.3344,0,U,21088,999,78182,.71768E-4,.87E-6,0
OKEAN-3,1991-039A,2026-07-16T14:02:06.667296,15.05439255,.0012516,82.5144,211.8704,249.4103,110.5781,0,U,21397,999,88442,.12228E-3,.1785E-4,0
COSMOS 2151,1991-042A,2026-07-16T19:15:06.421824,15.00515643,.0011805,82.4982,319.1001,349.9931,10.1056,0,U,21422,999,88255,.66343E-4,.864E-5,0
SL-14 R/B,1991-042B,2026-07-16T17:27:46.082880,14.81918538,.0017116,82.4931,99.1945,171.8964,188.2530,0,U,21423,999,87218,.19507E-4,.178E-5,0
ERS-1,1991-050A,2026-07-16T16:55:47.263296,14.39533926,.0031975,98.7796,219.1243,177.2884,182.8482,0,U,21574,999,83429,.68745E-4,.169E-5,0
ARIANE 40 R/B,1991-050F,2026-07-16T15:47:45.456864,14.42972350,.0004099,98.1862,244.9248,58.2617,301.8973,0,U,21610,999,83759,.45709E-4,.111E-5,0
INTERCOSMOS 25,1991-086A,2026-07-16T13:53:42.315936,12.12240792,.1484651,82.6005,232.0236,198.9388,155.0319,0,U,21819,999,51230,.97515E-5,.65E-6,0
SL-8 R/B,1992-008B,2026-07-16T10:35:16.198944,13.75984009,.003574,82.9273,172.0371,133.2229,340.3219,0,U,21876,999,72712,.80723E-4,.94E-6,0
SL-8 R/B,1992-020B,2026-07-16T15:46:58.152000,13.75550150,.0027896,82.9280,57.9637,299.2394,115.4393,0,U,21938,999,71886,-.77967E-5,.7E-7,0
USA 81,1992-023A,2026-07-16T14:44:43.908576,14.32405168,.0001925,85.0049,57.0190,65.6089,294.5304,0,U,21949,999,11324,.28178E-4,.96E-6,0
COSMOS 2219,1992-076A,2026-07-16T18:12:36.643680,14.14108164,.0018379,71.0611,108.2554,355.1498,4.9443,0,U,22219,999,73662,-.98175E-4,-.234E-5,0
SL-16 R/B,1992-076B,2026-07-16T16:37:03.548352,14.16877873,.0015036,71.0004,276.6276,260.3093,216.6075,0,U,22220,999,74010,.55472E-4,.63E-6,0
COSMOS 2221,1992-080A,2026-07-16T10:10:55.110144,14.96605760,.001579,82.5046,155.7529,116.4918,243.7925,0,U,22236,999,80004,.6912E-4,.816E-5,0
SL-16 R/B,1992-093B,2026-07-16T10:17:36.756096,14.15465332,.0002222,71.0216,94.0056,131.2263,228.9052,0,U,22285,999,73137,-.10496E-3,-.253E-5,0
COSMOS 2228,1992-094A,2026-07-16T19:40:26.166720,14.97678368,.0016426,82.5187,113.6594,223.3017,136.6916,0,U,22286,999,79538,.66873E-4,.811E-5,0
SL-16 R/B,1993-016B,2026-07-16T16:40:29.036928,14.15313430,.0008777,71.0086,304.2311,135.2886,224.8946,0,U,22566,999,72042,.15932E-3,.263E-5,0
COSMOS 2242,1993-024A,2026-07-16T07:47:52.464192,14.96986583,.0014732,82.5199,143.6660,228.4540,131.5420,0,U,22626,999,79963,.72501E-4,.862E-5,0
SL-16 R/B,1993-059B,2026-07-16T03:29:30.684192,14.17249367,.00166997,70.9901,100.2368,7.1032,353.0325,0,U,22803,999,69773,-.1259354E-4,-.74E-6,0
ARIANE 40 R/B,1993-061H,2026-07-16T16:08:47.829984,14.32918882,.0009509,98.4805,263.9153,260.8413,99.1696,0,U,22830,999,71257,.40931E-4,.69E-6,0
COSMOS 2278,1994-023A,2026-07-16T14:19:29.718336,14.14393454,.0009559,71.0521,265.3935,203.4810,156.5877,0,U,23087,999,66303,.55561E-4,.59E-6,0
SL-16 R/B,1994-023B,2026-07-16T14:03:06.906240,14.15025044,.0001378,70.9985,160.1918,122.6480,237.4775,0,U,23088,999,66432,.11767E-3,.18E-5,0
SL-16 R/B,1994-074B,2026-07-16T15:28:03.820224,14.79525068,.0007278,97.6986,223.1368,149.9782,324.3962,0,U,23343,999,70631,.31343E-4,.185E-5,0
SL-16 R/B,1994-077B,2026-07-16T15:47:43.785888,14.15574280,.0004091,70.9821,81.1617,302.2859,57.7867,0,U,23405,999,63448,.26842E-4,.5E-7,0
ARIANE 40+ R/B,1995-021B,2026-07-16T16:03:25.004160,14.39848075,.000794,98.4400,267.3162,112.7455,5.2242,0,U,23561,999,63780,.51027E-4,.117E-5,0
SL-16 R/B,1995-058B,2026-07-16T14:24:57.991680,14.15509477,.0014624,71.0209,269.6046,281.0002,78.9476,0,U,23705,999,58609,.14622E-3,.238E-5,0
